ITASAT                  
1 43786U 18099AE  24240.40686777  .00009845  00000+0  68292-3 0  9997
2 43786  97.5042 295.6967 0018587 109.5513 250.7724 15.05652077313286
KAZSCISAT-1             
1 43787U 18099AF  24240.13090442  .00035284  00000+0  17097-2 0  9998
2 43787  97.5004 299.5543 0006120  76.0999 284.0915 15.18431697313687
EAGLET-I                
1 43790U 18099AJ  24240.12907390  .00007653  00000+0  55855-3 0  9994
2 43790  97.5216 295.9130 0014834  90.0445 270.2481 15.03869890312937
ESEO                    
1 43792U 18099AL  24240.12093733  .00003507  00000+0  28474-3 0  9994
2 43792  97.5131 292.3131 0010463  79.7001 280.5402 15.00216991312834
CSIM-FD                 
1 43793U 18099AM  24240.43237199  .00034243  00000+0  15933-2 0  9991
2 43793  97.5242 304.6980 0011618  71.2148 289.0346 15.19802568313584
ORBWEAVER 1             
1 43795U 18099AP  24239.95685716  .00657191  00000+0  41000-2 0  9997
2 43795  97.5193 316.9358 0009642 261.8445  98.1726 15.75032329314592
THEA                    
1 43796U 18099AQ  24240.15557762  .00013938  00000+0  86300-3 0  9999
2 43796  97.5396 300.9185 0013910  78.5686 281.7105 15.09822535313483
ASTROCAST 0.1           
1 43798U 18099AS  24240.11115719  .00027582  00000+0  15107-2 0  9995
2 43798  97.5295 302.3045 0009664  49.3520 310.8550 15.14143448313605
JY1SAT (JO-97)          
1 43803U 18099AX  24240.42075934  .00014568  00000+0  91414-3 0  9996
2 43803  97.5146 297.5681 0010519  65.9175 294.3153 15.09358957313432
SUOMI-100               
1 43804U 18099AY  24240.11424435  .00015480  00000+0  99513-3 0  9999
2 43804  97.5211 297.0418 0016037  62.7306 297.5553 15.08396504313361
AL-FARABI 2             
1 43805U 18099AZ  24240.40978907  .00020506  00000+0  11353-2 0  9990
2 43805  97.5036 299.4820 0010323  54.3973 305.8219 15.13815363313603
CENTAURI-1              
1 43809U 18099BD  24239.57251262  .00009654  00000+0  68231-3 0  9997
2 43809  97.5230 295.1621 0019163  82.8917 277.4488 15.04950272312868
GLOBAL-2                
1 43812U 18099BG  24239.38954611  .00005353  00000+0  41822-3 0  9997
2 43812  97.4524 291.4120 0004458 210.6279 149.4686 15.01493177312628
BRIO                    
1 43813U 18099BH  24240.19672694  .00032431  00000+0  15168-2 0  9997
2 43813  97.5613 308.4764 0006470  54.3247 305.8589 15.19678276313441
SEAHAWK-1               
1 43820U 18099BQ  24239.90267637  .00013036  00000+0  87938-3 0  9994
2 43820  97.4977 294.4028 0012825  81.1410 279.1270 15.06693354312673
SAUDISAT 5A             
1 43831U 18102A   24240.50725796  .00008433  00000+0  42797-3 0  9993
2 43831  97.4020 304.4574 0010613 292.4254  67.5855 15.17116176315404
SAUDISAT 5B             
1 43833U 18102C   24240.51540862  .00008511  00000+0  42426-3 0  9991
2 43833  97.4072 306.4005 0011392 296.8222  63.1847 15.17736081315497
2018-102D               
1 43834U 18102D   24240.49805914  .00016162  00000+0  66846-3 0  9994
2 43834  97.4188 311.2256 0009519 284.0494  75.9685 15.24005023315748
2018-102E               
1 43835U 18102E   24240.49405359  .00058426  00000+0  14220-2 0  9991
2 43835  97.4250 319.2225 0008430 252.0106 108.0221 15.40711636316263
2018-102F               
1 43836U 18102F   24240.52713200  .00066844  00000+0  15387-2 0  9991
2 43836  97.4303 321.0874 0008513 252.7011 107.3305 15.42355161316307
2018-102G               
1 43837U 18102G   24240.47852883  .00069633  00000+0  14163-2 0  9997
2 43837  97.4338 323.0817 0008280 250.8307 109.2046 15.46014426316430
2018-102H               
1 43838U 18102H   24239.26383648  .00465529  00000+0  24114-2 0  9992
2 43838  97.3587 324.7583 0016680 287.8485  72.0963 15.79646956316614
2018-102J               
1 43839U 18102J   24240.47344440  .00057837  00000+0  13232-2 0  9993
2 43839  97.4503 325.8975 0009321 257.7866 102.2338 15.42572692316408
ISAT                    
1 43879U 18111D   24240.50632053  .00019865  00000+0  11247-2 0  9994
2 43879  97.6094 145.9482 0015154 111.7994 248.4851 15.12968973308171
UWE-4                   
1 43880U 18111E   24239.54995346  .00016571  00000+0  97170-3 0  9996
2 43880  97.6024 144.8268 0018263 123.3929 236.9051 15.11702429308059
D-STAR ONE (SPARROW)    
1 43881U 18111F   24239.98923729  .00020351  00000+0  11354-2 0  9991
2 43881  97.6192 147.4752 0011485 144.8154 215.3837 15.13533536308180
LEMUR-2-TINYKEV         
1 43883U 18111H   24240.02279695  .00074938  00000+0  24717-2 0  9993
2 43883  97.5997 154.4054 0011922  90.6665 269.5941 15.31078969308707
LEMUR-2-REMY-COLTON     
1 43884U 18111J   24240.32761646  .00040754  00000+0  16331-2 0  9991
2 43884  97.6206 154.8117 0005351 101.3665 258.8173 15.24898033308673
MICRODRAGON             
1 43935U 19003D   24240.30443150  .00221098  00000+0  10738-2 0  9991
2 43935  97.0679 257.0461 0009654 141.4245 218.7716 15.81795616313091
JILIN-1 09              
1 43943U 19005B   24240.52036813  .00010125  00000+0  54216-3 0  9997
2 43943  97.4879 333.2354 0012235 121.2960 238.9472 15.15153774309293
JILIN-1 10              
1 43946U 19005E   24240.48823854  .00010462  00000+0  55969-3 0  9994
2 43946  97.4876 333.2424 0015656  78.6633 281.6357 15.15135169309210
EGYPTSAT-A (MISRSAT-A)  
1 44047U 19008A   24240.46266302  .00001768  00000+0  28826-3 0  9998
2 44047  98.0086 303.6890 0001389  75.1097 285.0264 14.72186996296312
EMISAT                  
1 44078U 19018A   24240.45267578  .00000681  00000+0  21233-3 0  9996
2 44078  98.3319 298.2415 0019495  52.1234 308.1717 14.43785086285002
JILIN-1 GAOFEN 3A       
1 44312U 19032C   24240.55055831  .00015004  00000+0  83963-3 0  9994
2 44312  44.9846 331.9844 0007374 161.0251 199.0902 15.13358657287461
XIAOXIANG 4             
1 44313U 19032D   24240.45465486  .00029156  00000+0  12398-2 0  9991
2 44313  44.9885 311.9134 0003345 177.4194 182.6705 15.22577408287721
WT 1A                   
1 44315U 19032F   24240.50796532  .00021781  00000+0  10192-2 0  9994
2 44315  44.9781 308.9645 0008062 191.1496 168.9206 15.19423598287729
WT 1B                   
1 44316U 19032G   24240.50165769  .00013776  00000+0  88177-3 0  9991
2 44316  44.9814   7.9395 0011139 122.5831 237.6121 15.08514635286994
PROX-1                  
1 44339U 19036A   24239.88394322  .00018132  00000+0  29896-2 0  9991
2 44339  23.9977 129.9570 0008147  65.7033 294.4312 14.68915016275649
NPSAT1                  
1 44340U 19036B   24240.10486880  .00012063  00000+0  22624-2 0  9990
2 44340  23.9985 157.1663 0009282  15.6583 344.4197 14.62967294275489
FORMOSAT 7-3            
1 44343U 19036E   24240.06318774  .00012767  00000+0  77670-3 0  9997
2 44343  24.0002  24.1242 0001050  10.0292 350.0232 15.08424747283711
FORMOSAT 7-1            
1 44349U 19036L   24240.26162684  .00011180  00000+0  67797-3 0  9999
2 44349  23.9979 198.7543 0001184 242.7628 117.2755 15.08406167285479
FORMOSAT 7-4            
1 44350U 19036M   24240.41521735  .00011107  00000+0  67327-3 0  9992
2 44350  23.9984 259.7852 0000290 343.9179  16.1315 15.08416758284936
FORMOSAT 7-2            
1 44351U 19036N   24240.50401378  .00011774  00000+0  71415-3 0  9996
2 44351  23.9994 313.5047 0001016   5.1629 354.8885 15.08454123284434
FORMOSAT 7-6            
1 44353U 19036Q   24240.04213359  .00012821  00000+0  78121-3 0  9992
2 44353  23.9981 137.5167 0001086 296.2980  63.7412 15.08371192282589
FORMOSAT 7-5            
1 44358U 19036V   24240.21729377  .00011891  00000+0  72205-3 0  9991
2 44358  23.9990  76.0715 0001723  26.2018 333.8572 15.08421261283178
METEOR-M2 2             
1 44387U 19038A   24240.47327629  .00000463  00000+0  22178-3 0  9994
2 44387  98.8339 210.0011 0002375 102.7409 257.4034 14.23943986267530
SONATE                  
1 44400U 19038Q   24240.27641915  .00033482  00000+0  88084-3 0  9990
2 44400  97.7155 237.7575 0014218 200.5682 159.4992 15.38396857284999
LUCKY-7                 
1 44406U 19038W   24239.96178654  .00077605  00000+0  12458-2 0  9991
2 44406  97.7031 242.7475 0012731 175.6821 184.4543 15.52689651285318
COSMOS 2535             
1 44421U 19039A   24240.54832511  .00002778  00000+0  30105-3 0  9993
2 44421  97.6616 280.8788 0007562 235.5518 124.4986 14.88967577278410
QIANSHENG 1-01          
1 44486U 19052A   24240.47312606  .00033998  00000+0  11655-2 0  9995
2 44486  97.4044 308.4320 0012647  50.5993 309.6365 15.30032656277589
TIANQI-2                
1 44488U 19052C   24240.47398226  .00099711  00000+0  17090-2 0  9993
2 44488  97.4017 316.4904 0007241  12.0583 348.0841 15.50828139278128
GLOBAL-4                
1 44499U 19054E   24239.97206997  .00027585  00000+0  83695-3 0  9998
2 44499  45.0177 330.0622 0010632 267.4692  92.4976 15.33628078278478
XIAOXIANG 1-07          
1 44519U 19058A   24240.48468752  .00068380  00000+0  26826-2 0  9992
2 44519  97.7771 262.1025 0004774 337.2433  22.8592 15.25462506272564
ZY-1 02D                
1 44528U 19059A   24240.49313495  .00000495  00000+0  18744-3 0  9991
2 44528  98.4052 311.1156 0000674  24.2869 335.8349 14.35385995259844
TAURUS-1 (JINNIUZUO 1)  
1 44530U 19059C   24240.50095180  .00013297  00000+0  29650-2 0  9995
2 44530  98.5806   2.6468 0011596 195.1902 164.8948 14.56932177262149
ZHUHAI-1 03A            
1 44534U 19060A   24240.52574981  .00035138  00000+0  11801-2 0  9991
2 44534  97.4993   9.6346 0013982 132.0103 228.2330 15.30675047275006
ZHUHAI-1 03B            
1 44536U 19060C   24240.51989433  .00034231  00000+0  11227-2 0  9999
2 44536  97.4923  10.8492 0016342 173.4465 186.6993 15.31411440275075
ZHUHAI-1 03C            
1 44537U 19060D   24240.46162840  .00035572  00000+0  11660-2 0  9999
2 44537  97.5176  10.9847 0013657 172.3741 187.7710 15.31461083275171
ZHUHAI-1 03D            
1 44538U 19060E   24240.47607342  .00031356  00000+0  11270-2 0  9995
2 44538  97.4753   8.4805 0016079 144.5359 215.6953 15.28457709275081
